*******************************************************************************
 Revised: April 12, 2021                Venus                           299 / 2
 
 PHYSICAL DATA (updated 2020-Oct-19):
  Vol. Mean Radius (km) =  6051.84+-0.01 Density (g/cm^3)      =  5.204
  Mass x10^23 (kg)      =    48.685      Volume (x10^10 km^3)  = 92.843
  Sidereal rot. period  =   243.018484 d Sid. Rot. Rate (rad/s)= -0.00000029924
  Mean solar day        =   116.7490 d   Equ. gravity  m/s^2   =  8.870
  Mom. of Inertia       =     0.33       Core radius (km)      = ~3200
  Geometric Albedo      =     0.65       Potential Love # k2   = ~0.25
  GM (km^3/s^2)         = 324858.592     Equatorial Radius, Re = 6051.893 km
  GM 1-sigma (km^3/s^2) =    +-0.006     Mass ratio (Sun/Venus)= 408523.72
  Atmos. pressure (bar) =  90            Max. angular diam.    =   60.2"
  Mean Temperature (K)  = 735            Visual mag. V(1,0)    =   -4.40
  Obliquity to orbit    = 177.3 deg      Hill's sphere rad.,Rp =  167.1
  Sidereal orb. per., y =   0.61519726   Orbit speed, km/s     =   35.021
  Sidereal orb. per., d = 224.70079922   Escape speed, km/s    =   10.361
                                 Perihelion  Aphelion    Mean
  Solar Constant (W/m^2)         2759         2614       2650
  Maximum Planetary IR (W/m^2)    153         153         153
  Minimum Planetary IR (W/m^2)    153         153         153
*******************************************************************************


*******************************************************************************
Ephemeris / WWW_USER Tue Apr 14 05:31:41 2026 Pasadena, USA      / Horizons    
*******************************************************************************
Target body name: Venus (299)                     {source: DE441}
Center body name: Earth (399)                     {source: DE441}
Center-site name: GEOCENTRIC
*******************************************************************************
Start time      : A.D. 2025-Jan-01 00:00:00.0000 UT      
Stop  time      : A.D. 2032-Jan-01 00:00:00.0000 UT      
Step-size       : 720 minutes
*******************************************************************************
Target pole/equ : IAU_VENUS                       {East-longitude positive}
Target radii    : 6051.8, 6051.8, 6051.8 km       {Equator_a, b, pole_c}       
Center geodetic : 0.0, 0.0, -6378.137             {E-lon(deg),Lat(deg),Alt(km)}
Center cylindric: 0.0, 0.0, 0.0                   {E-lon(deg),Dxy(km),Dz(km)}
Center pole/equ : ITRF93                          {East-longitude positive}
Center radii    : 6378.137, 6378.137, 6356.752 km {Equator_a, b, pole_c}       
Target primary  : Sun
Vis. interferer : MOON (R_eq= 1737.400) km        {source: DE441}
Rel. light bend : Sun                             {source: DE441}
Rel. lght bnd GM: 1.3271E+11 km^3/s^2                                          
Atmos refraction: NO (AIRLESS)
RA format       : DEG
Time format     : CAL 
Calendar mode   : Mixed Julian/Gregorian
EOP file        : eop.260413.p260710                                           
EOP coverage    : DATA-BASED 1962-JAN-20 TO 2026-APR-13. PREDICTS-> 2026-JUL-09
Units conversion: 1 au= 149597870.700 km, c= 299792.458 km/s, 1 day= 86400.0 s 
Table cut-offs 1: Elevation (-90.0deg=NO ),Airmass (>38.000=NO), Daylight (NO )
Table cut-offs 2: Solar elongation (  0.0,180.0=NO ),Local Hour Angle( 0.0=NO )
Table cut-offs 3: RA/DEC angular rate (     0.0=NO )                           
Table format    : Comma Separated Values (spreadsheet)
*******************************************************************************
 Date__(UT)__HR:MN, , ,    ObsEcLon,   ObsEcLat,
************************************************
$$SOE
 2030-Jul-26 00:00, , , 100.2444734, -0.2725289,
 2030-Jul-26 12:00, , , 100.8508821, -0.2501255,
 2030-Jul-27 00:00, , , 101.4574537, -0.2277371,
 2030-Jul-27 12:00, , , 102.0641866, -0.2053672,
 2030-Jul-28 00:00, , , 102.6710794, -0.1830195,
 2030-Jul-28 12:00, , , 103.2781305, -0.1606975,
 2030-Jul-29 00:00, , , 103.8853382, -0.1384047,
 2030-Jul-29 12:00, , , 104.4927010, -0.1161448,
 2030-Jul-30 00:00, , , 105.1002173, -0.0939212,
 2030-Jul-30 12:00, , , 105.7078857, -0.0717375,
 2030-Jul-31 00:00, , , 106.3157046, -0.0495972,
 2030-Jul-31 12:00, , , 106.9236730, -0.0275039,
 2030-Aug-01 00:00, , , 107.5317897, -0.0054610,
 2030-Aug-01 12:00, , , 108.1400538,  0.0165278,
 2030-Aug-02 00:00, , , 108.7484646,  0.0384590,
 2030-Aug-02 12:00, , , 109.3570217,  0.0603292,
 2030-Aug-03 00:00, , , 109.9657247,  0.0821348,
 2030-Aug-03 12:00, , , 110.5745735,  0.1038722,
 2030-Aug-04 00:00, , , 111.1835683,  0.1255378,
 2030-Aug-04 12:00, , , 111.7927092,  0.1471282,
 2030-Aug-05 00:00, , , 112.4019965,  0.1686397,
 2030-Aug-05 12:00, , , 113.0114306,  0.1900689,
 2030-Aug-06 00:00, , , 113.6210118,  0.2114121,
 2030-Aug-06 12:00, , , 114.2307406,  0.2326657,
 2030-Aug-07 00:00, , , 114.8406171,  0.2538263,
 2030-Aug-07 12:00, , , 115.4506417,  0.2748902,
 2030-Aug-08 00:00, , , 116.0608143,  0.2958540,
 2030-Aug-08 12:00, , , 116.6711351,  0.3167140,
 2030-Aug-09 00:00, , , 117.2816039,  0.3374667,
 2030-Aug-09 12:00, , , 117.8922208,  0.3581086,
 2030-Aug-10 00:00, , , 118.5029856,  0.3786362,
 2030-Aug-10 12:00, , , 119.1138983,  0.3990461,
 2030-Aug-11 00:00, , , 119.7249592,  0.4193349,
 2030-Aug-11 12:00, , , 120.3361685,  0.4394990,
 2030-Aug-12 00:00, , , 120.9475268,  0.4595352,
 2030-Aug-12 12:00, , , 121.5590350,  0.4794402,
 2030-Aug-13 00:00, , , 122.1706941,  0.4992107,
 2030-Aug-13 12:00, , , 122.7825055,  0.5188434,
 2030-Aug-14 00:00, , , 123.3944705,  0.5383353,
 2030-Aug-14 12:00, , , 124.0065906,  0.5576831,
 2030-Aug-15 00:00, , , 124.6188675,  0.5768839,
 2030-Aug-15 12:00, , , 125.2313025,  0.5959345,
 2030-Aug-16 00:00, , , 125.8438970,  0.6148321,
 2030-Aug-16 12:00, , , 126.4566521,  0.6335737,
 2030-Aug-17 00:00, , , 127.0695686,  0.6521564,
 2030-Aug-17 12:00, , , 127.6826472,  0.6705775,
 2030-Aug-18 00:00, , , 128.2958882,  0.6888340,
 2030-Aug-18 12:00, , , 128.9092918,  0.7069233,
 2030-Aug-19 00:00, , , 129.5228579,  0.7248426,
 2030-Aug-19 12:00, , , 130.1365861,  0.7425893,
 2030-Aug-20 00:00, , , 130.7504760,  0.7601607,
 2030-Aug-20 12:00, , , 131.3645267,  0.7775543,
 2030-Aug-21 00:00, , , 131.9787375,  0.7947673,
 2030-Aug-21 12:00, , , 132.5931074,  0.8117974,
 2030-Aug-22 00:00, , , 133.2076350,  0.8286419,
 2030-Aug-22 12:00, , , 133.8223193,  0.8452985,
 2030-Aug-23 00:00, , , 134.4371586,  0.8617647,
 2030-Aug-23 12:00, , , 135.0521516,  0.8780380,
 2030-Aug-24 00:00, , , 135.6672966,  0.8941162,
 2030-Aug-24 12:00, , , 136.2825918,  0.9099968,
 2030-Aug-25 00:00, , , 136.8980354,  0.9256776,
 2030-Aug-25 12:00, , , 137.5136256,  0.9411563,
 2030-Aug-26 00:00, , , 138.1293604,  0.9564306,
 2030-Aug-26 12:00, , , 138.7452379,  0.9714983,
 2030-Aug-27 00:00, , , 139.3612561,  0.9863573,
 2030-Aug-27 12:00, , , 139.9774132,  1.0010054,
 2030-Aug-28 00:00, , , 140.5937072,  1.0154403,
 2030-Aug-28 12:00, , , 141.2101365,  1.0296601,
 2030-Aug-29 00:00, , , 141.8266994,  1.0436626,
 2030-Aug-29 12:00, , , 142.4433945,  1.0574457,
 2030-Aug-30 00:00, , , 143.0602203,  1.0710074,
 2030-Aug-30 12:00, , , 143.6771758,  1.0843456,
 2030-Aug-31 00:00, , , 144.2942597,  1.0974583,
 2030-Aug-31 12:00, , , 144.9114712,  1.1103435,
 2030-Sep-01 00:00, , , 145.5288092,  1.1229992,
 2030-Sep-01 12:00, , , 146.1462727,  1.1354233,
 2030-Sep-02 00:00, , , 146.7638609,  1.1476140,
 2030-Sep-02 12:00, , , 147.3815726,  1.1595692,
 2030-Sep-03 00:00, , , 147.9994068,  1.1712871,
 2030-Sep-03 12:00, , , 148.6173621,  1.1827657,
 2030-Sep-04 00:00, , , 149.2354373,  1.1940032,
 2030-Sep-04 12:00, , , 149.8536309,  1.2049977,
 2030-Sep-05 00:00, , , 150.4719416,  1.2157475,
 2030-Sep-05 12:00, , , 151.0903679,  1.2262506,
 2030-Sep-06 00:00, , , 151.7089084,  1.2365055,
 2030-Sep-06 12:00, , , 152.3275619,  1.2465105,
 2030-Sep-07 00:00, , , 152.9463273,  1.2562639,
 2030-Sep-07 12:00, , , 153.5652037,  1.2657640,
 2030-Sep-08 00:00, , , 154.1841906,  1.2750095,
 2030-Sep-08 12:00, , , 154.8032878,  1.2839989,
 2030-Sep-09 00:00, , , 155.4224951,  1.2927306,
 2030-Sep-09 12:00, , , 156.0418130,  1.3012035,
 2030-Sep-10 00:00, , , 156.6612420,  1.3094163,
 2030-Sep-10 12:00, , , 157.2807829,  1.3173676,
 2030-Sep-11 00:00, , , 157.9004368,  1.3250564,
 2030-Sep-11 12:00, , , 158.5202046,  1.3324817,
 2030-Sep-12 00:00, , , 159.1400875,  1.3396424,
 2030-Sep-12 12:00, , , 159.7600866,  1.3465375,
 2030-Sep-13 00:00, , , 160.3802027,  1.3531662,
 2030-Sep-13 12:00, , , 161.0004366,  1.3595276,
 2030-Sep-14 00:00, , , 161.6207890,  1.3656211,
 2030-Sep-14 12:00, , , 162.2412602,  1.3714459,
 2030-Sep-15 00:00, , , 162.8618502,  1.3770013,
 2030-Sep-15 12:00, , , 163.4825591,  1.3822867,
 2030-Sep-16 00:00, , , 164.1033865,  1.3873017,
 2030-Sep-16 12:00, , , 164.7243319,  1.3920457,
 2030-Sep-17 00:00, , , 165.3453946,  1.3965182,
 2030-Sep-17 12:00, , , 165.9665738,  1.4007189,
 2030-Sep-18 00:00, , , 166.5878683,  1.4046475,
 2030-Sep-18 12:00, , , 167.2092772,  1.4083035,
 2030-Sep-19 00:00, , , 167.8307991,  1.4116868,
 2030-Sep-19 12:00, , , 168.4524327,  1.4147971,
 2030-Sep-20 00:00, , , 169.0741765,  1.4176343,
 2030-Sep-20 12:00, , , 169.6960290,  1.4201982,
 2030-Sep-21 00:00, , , 170.3179885,  1.4224888,
 2030-Sep-21 12:00, , , 170.9400534,  1.4245060,
 2030-Sep-22 00:00, , , 171.5622219,  1.4262497,
 2030-Sep-22 12:00, , , 172.1844922,  1.4277201,
 2030-Sep-23 00:00, , , 172.8068625,  1.4289173,
 2030-Sep-23 12:00, , , 173.4293309,  1.4298412,
 2030-Sep-24 00:00, , , 174.0518956,  1.4304922,
 2030-Sep-24 12:00, , , 174.6745547,  1.4308703,
 2030-Sep-25 00:00, , , 175.2973066,  1.4309758,
 2030-Sep-25 12:00, , , 175.9201494,  1.4308090,
 2030-Sep-26 00:00, , , 176.5430816,  1.4303700,
 2030-Sep-26 12:00, , , 177.1661015,  1.4296593,
 2030-Sep-27 00:00, , , 177.7892078,  1.4286771,
